start=new Date('2021-10-04T00:00:00.000Z').valueOf();
sats=[{"GP_ID":"186141873","APOAPSIS":"548.734","RA_OF_ASC_NODE":"84.7417","ARG_OF_PERICENTER":"82.1968","DECAY_DATE":null,"MEAN_MOTION_DOT":"-0.00000474","LAUNCH_DATE":"2021-01-20","TLE_LINE2":"2 47395  53.0560  84.7417 0002169  82.1968 277.9268 15.06394012 39747","PERIAPSIS":"545.730","MEAN_ELEMENT_THEORY":"SGP4","TIME_SYSTEM":"UTC","INCLINATION":"53.0560","MEAN_MOTION_DDOT":"0.0000000000000","BSTAR":"-0.00001289600000","CLASSIFICATION_TYPE":"U","REV_AT_EPOCH":"3974","RCS_SIZE":"LARGE","OBJECT_NAME":"STARLINK-2117","COUNTRY_CODE":"US","EPHEMERIS_TYPE":"0","ECCENTRICITY":"0.00021690","SITE":"AFETR","CENTER_NAME":"EARTH","PERIOD":"95.593","OBJECT_TYPE":"PAYLOAD","NORAD_CAT_ID":"47395","MEAN_ANOMALY":"277.9268","TLE_LINE1":"1 47395U 21005AY  21276.76788656 -.00000474  00000-0 -12896-4 0  9994","FILE":"3143202","MEAN_MOTION":"15.06394012","SEMIMAJOR_AXIS":"6925.367","REF_FRAME":"TEME","ELEMENT_SET_NO":"999","OBJECT_ID":"2021-005AY","EPOCH":"2021-10-03T18:25:45.398784"},{"ECCENTRICITY":"0.00023650","PERIOD":"95.593","SITE":"AFETR","CENTER_NAME":"EARTH","NORAD_CAT_ID":"47396","OBJECT_TYPE":"PAYLOAD","REV_AT_EPOCH":"3962","RCS_SIZE":"LARGE","COUNTRY_CODE":"US","EPHEMERIS_TYPE":"0","OBJECT_NAME":"STARLINK-2118","REF_FRAME":"TEME","ELEMENT_SET_NO":"999","EPOCH":"2021-10-03T21:03:39.769632","OBJECT_ID":"2021-005AZ","MEAN_ANOMALY":"270.0221","TLE_LINE1":"1 47396U 21005AZ  21276.87754363 -.00000467  00000-0 -12455-4 0  9998","FILE":"3143202","SEMIMAJOR_AXIS":"6925.371","MEAN_MOTION":"15.06392660","DECAY_DATE":null,"GP_ID":"186142123","RA_OF_ASC_NODE":"94.2533","APOAPSIS":"548.874","ARG_OF_PERICENTER":"90.1039","INCLINATION":"53.0558","TIME_SYSTEM":"UTC","MEAN_MOTION_DDOT":"0.0000000000000","BSTAR":"-0.00001245500000","CLASSIFICATION_TYPE":"U","LAUNCH_DATE":"2021-01-20","TLE_LINE2":"2 47396  53.0558  94.2533 0002365  90.1039 270.0221 15.06392660 39623","MEAN_MOTION_DOT":"-0.00000467","PERIAPSIS":"545.598","MEAN_ELEMENT_THEORY":"SGP4"},{"COUNTRY_CODE":"US","EPHEMERIS_TYPE":"0","OBJECT_NAME":"STARLINK-2119","RCS_SIZE":"LARGE","REV_AT_EPOCH":"3920","NORAD_CAT_ID":"47397","OBJECT_TYPE":"PAYLOAD","PERIOD":"95.592","CENTER_NAME":"EARTH","SITE":"AFETR","ECCENTRICITY":"0.00018960","SEMIMAJOR_AXIS":"6925.361","MEAN_MOTION":"15.06396065","FILE":"3143202","TLE_LINE1":"1 47397U 21005BA  21276.87477598 -.00000105  00000-0  11835-4 0  9990","MEAN_ANOMALY":"273.9653","EPOCH":"2021-10-03T20:59:40.644672","OBJECT_ID":"2021-005BA","ELEMENT_SET_NO":"999","REF_FRAME":"TEME","ARG_OF_PERICENTER":"86.1553","RA_OF_ASC_NODE":"124.2831","APOAPSIS":"548.539","GP_ID":"186142388","DECAY_DATE":null,"MEAN_ELEMENT_THEORY":"SGP4","PERIAPSIS":"545.913","TLE_LINE2":"2 47397  53.0548 124.2831 0001896  86.1553 273.9653 15.06396065 39200","LAUNCH_DATE":"2021-01-20","MEAN_MOTION_DOT":"-0.00000105","CLASSIFICATION_TYPE":"U","MEAN_MOTION_DDOT":"0.0000000000000","BSTAR":"0.00001183500000","INCLINATION":"53.0548","TIME_SYSTEM":"UTC"},{"APOAPSIS":"548.773","RA_OF_ASC_NODE":"94.0984","ARG_OF_PERICENTER":"76.0661","GP_ID":"186142639","DECAY_DATE":null,"PERIAPSIS":"545.653","MEAN_ELEMENT_THEORY":"SGP4","LAUNCH_DATE":"2021-01-20","TLE_LINE2":"2 47398  53.0522  94.0984 0002253  76.0661 284.0578 15.06400169 39628","MEAN_MOTION_DOT":"0.00000293","CLASSIFICATION_TYPE":"U","INCLINATION":"53.0522","TIME_SYSTEM":"UTC","MEAN_MOTION_DDOT":"0.0000000000000","BSTAR":"0.00003858500000","COUNTRY_CODE":"US","EPHEMERIS_TYPE":"0","OBJECT_NAME":"STARLINK-2120","REV_AT_EPOCH":"3962","RCS_SIZE":"LARGE","PERIOD":"95.592","SITE":"AFETR","CENTER_NAME":"EARTH","NORAD_CAT_ID":"47398","OBJECT_TYPE":"PAYLOAD","ECCENTRICITY":"0.00022530","TLE_LINE1":"1 47398U 21005BB  21276.91440151  .00000293  00000-0  38585-4 0  9999","FILE":"3143202","SEMIMAJOR_AXIS":"6925.348","MEAN_MOTION":"15.06400169","MEAN_ANOMALY":"284.0578","EPOCH":"2021-10-03T21:56:44.290464","OBJECT_ID":"2021-005BB","REF_FRAME":"TEME","ELEMENT_SET_NO":"999"},{"DECAY_DATE":null,"GP_ID":"186141387","RA_OF_ASC_NODE":"104.6207","APOAPSIS":"548.313","ARG_OF_PERICENTER":"86.4683","TIME_SYSTEM":"UTC","INCLINATION":"53.0552","MEAN_MOTION_DDOT":"0.0000000000000","BSTAR":"0.00011884000000","CLASSIFICATION_TYPE":"U","MEAN_MOTION_DOT":"0.00001489","LAUNCH_DATE":"2021-01-20","TLE_LINE2":"2 47399  53.0552 104.6207 0001600  86.4683 273.6489 15.06402774 39463","PERIAPSIS":"546.097","MEAN_ELEMENT_THEORY":"SGP4","ECCENTRICITY":"0.00016000","SITE":"AFETR","CENTER_NAME":"EARTH","PERIOD":"95.592","OBJECT_TYPE":"PAYLOAD","NORAD_CAT_ID":"47399","REV_AT_EPOCH":"3946","RCS_SIZE":"LARGE","OBJECT_NAME":"STARLINK-2121","EPHEMERIS_TYPE":"0","COUNTRY_CODE":"US","REF_FRAME":"TEME","ELEMENT_SET_NO":"999","OBJECT_ID":"2021-005BC","EPOCH":"2021-10-03T19:04:11.708544","MEAN_ANOMALY":"273.6489","FILE":"3143202","TLE_LINE1":"1 47399U 21005BC  21276.79457996  .00001489  00000-0  11884-3 0  9991","MEAN_MOTION":"15.06402774","SEMIMAJOR_AXIS":"6925.340"},{"EPHEMERIS_TYPE":"0","COUNTRY_CODE":"US","OBJECT_NAME":"STARLINK-2122","RCS_SIZE":"LARGE","REV_AT_EPOCH":"3975","NORAD_CAT_ID":"47400","OBJECT_TYPE":"PAYLOAD","PERIOD":"95.593","CENTER_NAME":"EARTH","SITE":"AFETR","ECCENTRICITY":"0.00022290","SEMIMAJOR_AXIS":"6925.376","MEAN_MOTION":"15.06390895","FILE":"3143202","TLE_LINE1":"1 47400U 21005BD  21276.84435026 -.00000337  00000-0 -36983-5 0  9992","MEAN_ANOMALY":"259.2568","EPOCH":"2021-10-03T20:15:51.862464","OBJECT_ID":"2021-005BD","ELEMENT_SET_NO":"999","REF_FRAME":"TEME","ARG_OF_PERICENTER":"100.8672","APOAPSIS":"548.785","RA_OF_ASC_NODE":"84.4082","GP_ID":"186141637","DECAY_DATE":null,"MEAN_ELEMENT_THEORY":"SGP4","PERIAPSIS":"545.698","TLE_LINE2":"2 47400  53.0528  84.4082 0002229 100.8672 259.2568 15.06390895 39752","LAUNCH_DATE":"2021-01-20","MEAN_MOTION_DOT":"-0.00000337","CLASSIFICATION_TYPE":"U","MEAN_MOTION_DDOT":"0.0000000000000","BSTAR":"-0.00000369830000","INCLINATION":"53.0528","TIME_SYSTEM":"UTC"},{"MEAN_ELEMENT_THEORY":"SGP4","PERIAPSIS":"545.861","LAUNCH_DATE":"2021-01-20","TLE_LINE2":"2 47401  53.0571  94.3257 0001973  86.9274 273.1941 15.06395499 39623","MEAN_MOTION_DOT":"-0.00000826","CLASSIFICATION_TYPE":"U","MEAN_MOTION_DDOT":"0.0000000000000","BSTAR":"-0.00003657500000","INCLINATION":"53.0571","TIME_SYSTEM":"UTC","ARG_OF_PERICENTER":"86.9274","RA_OF_ASC_NODE":"94.3257","APOAPSIS":"548.594","GP_ID":"186142875","DECAY_DATE":null,"SEMIMAJOR_AXIS":"6925.362","MEAN_MOTION":"15.06395499","FILE":"3143202","TLE_LINE1":"1 47401U 21005BE  21276.86279800 -.00000826  00000-0 -36575-4 0  9990","MEAN_ANOMALY":"273.1941","EPOCH":"2021-10-03T20:42:25.747200","OBJECT_ID":"2021-005BE","ELEMENT_SET_NO":"999","REF_FRAME":"TEME","COUNTRY_CODE":"US","EPHEMERIS_TYPE":"0","OBJECT_NAME":"STARLINK-2123","RCS_SIZE":"LARGE","REV_AT_EPOCH":"3962","NORAD_CAT_ID":"47401","OBJECT_TYPE":"PAYLOAD","PERIOD":"95.592","SITE":"AFETR","CENTER_NAME":"EARTH","ECCENTRICITY":"0.00019730"},{"REV_AT_EPOCH":"3961","RCS_SIZE":"LARGE","EPHEMERIS_TYPE":"0","COUNTRY_CODE":"US","OBJECT_NAME":"STARLINK-2124","ECCENTRICITY":"0.00021340","PERIOD":"95.592","CENTER_NAME":"EARTH","SITE":"AFETR","NORAD_CAT_ID":"47402","OBJECT_TYPE":"PAYLOAD","MEAN_ANOMALY":"274.7442","FILE":"3143202","TLE_LINE1":"1 47402U 21005BF  21276.81487984 -.00000129  00000-0  10230-4 0  9995","SEMIMAJOR_AXIS":"6925.326","MEAN_MOTION":"15.06407227","REF_FRAME":"TEME","ELEMENT_SET_NO":"999","EPOCH":"2021-10-03T19:33:25.618176","OBJECT_ID":"2021-005BF","GP_ID":"186143126","APOAPSIS":"548.669","RA_OF_ASC_NODE":"94.5440","ARG_OF_PERICENTER":"85.3790","DECAY_DATE":null,"TLE_LINE2":"2 47402  53.0559  94.5440 0002134  85.3790 274.7442 15.06407227 39617","LAUNCH_DATE":"2021-01-20","MEAN_MOTION_DOT":"-0.00000129","PERIAPSIS":"545.714","MEAN_ELEMENT_THEORY":"SGP4","INCLINATION":"53.0559","TIME_SYSTEM":"UTC","MEAN_MOTION_DDOT":"0.0000000000000","BSTAR":"0.00001023000000","CLASSIFICATION_TYPE":"U"},{"LAUNCH_DATE":"2021-01-20","TLE_LINE2":"2 47403  53.0557  94.5084 0001565  84.5109 275.6059 15.06399834 39610","MEAN_MOTION_DOT":"0.00001588","PERIAPSIS":"546.130","MEAN_ELEMENT_THEORY":"SGP4","INCLINATION":"53.0557","TIME_SYSTEM":"UTC","BSTAR":"0.00012547000000","MEAN_MOTION_DDOT":"0.0000000000000","CLASSIFICATION_TYPE":"U","GP_ID":"186141874","APOAPSIS":"548.298","RA_OF_ASC_NODE":"94.5084","ARG_OF_PERICENTER":"84.5109","DECAY_DATE":null,"MEAN_ANOMALY":"275.6059","FILE":"3143202","TLE_LINE1":"1 47403U 21005BG  21276.82226897  .00001588  00000-0  12547-3 0  9992","SEMIMAJOR_AXIS":"6925.349","MEAN_MOTION":"15.06399834","REF_FRAME":"TEME","ELEMENT_SET_NO":"999","EPOCH":"2021-10-03T19:44:04.039008","OBJECT_ID":"2021-005BG","REV_AT_EPOCH":"3961","RCS_SIZE":"LARGE","COUNTRY_CODE":"US","EPHEMERIS_TYPE":"0","OBJECT_NAME":"STARLINK-2127","ECCENTRICITY":"0.00015650","PERIOD":"95.592","CENTER_NAME":"EARTH","SITE":"AFETR","NORAD_CAT_ID":"47403","OBJECT_TYPE":"PAYLOAD"},{"DECAY_DATE":null,"ARG_OF_PERICENTER":"88.4327","RA_OF_ASC_NODE":"94.2258","APOAPSIS":"548.470","GP_ID":"186142124","CLASSIFICATION_TYPE":"U","BSTAR":"-0.00000585770000","MEAN_MOTION_DDOT":"0.0000000000000","TIME_SYSTEM":"UTC","INCLINATION":"53.0552","MEAN_ELEMENT_THEORY":"SGP4","PERIAPSIS":"545.905","MEAN_MOTION_DOT":"-0.00000369","LAUNCH_DATE":"2021-01-20","TLE_LINE2":"2 47404  53.0552  94.2258 0001852  88.4327 271.6874 15.06408389 39628","OBJECT_TYPE":"PAYLOAD","NORAD_CAT_ID":"47404","SITE":"AFETR","CENTER_NAME":"EARTH","PERIOD":"95.592","ECCENTRICITY":"0.00018520","OBJECT_NAME":"STARLINK-2128","EPHEMERIS_TYPE":"0","COUNTRY_CODE":"US","RCS_SIZE":"LARGE","REV_AT_EPOCH":"3962","OBJECT_ID":"2021-005BH","EPOCH":"2021-10-03T21:14:16.085760","ELEMENT_SET_NO":"999","REF_FRAME":"TEME","MEAN_MOTION":"15.06408389","SEMIMAJOR_AXIS":"6925.323","FILE":"3143202","TLE_LINE1":"1 47404U 21005BH  21276.88490840 -.00000369  00000-0 -58577-5 0  9993","MEAN_ANOMALY":"271.6874"}];
